[{"OBJECT_NAME":"GSAT0214 (PRN E05)","OBJECT_ID":"2016-069D","EPOCH":"2022-08-15T04:16:55.767072","MEAN_MOTION":1.70472585,"ECCENTRICITY":0.0002632,"INCLINATION":54.8275,"RA_OF_ASC_NODE":139.9529,"ARG_OF_PERICENTER":285.1439,"MEAN_ANOMALY":74.853,"EPHEMERIS_TYPE":0,"CLASSIFICATION_TYPE":"U","NORAD_CAT_ID":41862,"ELEMENT_SET_NO":999,"REV_AT_EPOCH":3574,"BSTAR":0,"MEAN_MOTION_DOT":-1.4e-7,"MEAN_MOTION_DDOT":0},{"OBJECT_NAME":"GSAT0215 (PRN E21)","OBJECT_ID":"2017-079A","EPOCH":"2022-08-18T14:26:13.028352","MEAN_MOTION":1.70474388,"ECCENTRICITY":0.0004017,"INCLINATION":55.7057,"RA_OF_ASC_NODE":260.0127,"ARG_OF_PERICENTER":267.0625,"MEAN_ANOMALY":92.9459,"EPHEMERIS_TYPE":0,"CLASSIFICATION_TYPE":"U","NORAD_CAT_ID":43055,"ELEMENT_SET_NO":999,"REV_AT_EPOCH":2914,"BSTAR":0,"MEAN_MOTION_DOT":3.1e-7,"MEAN_MOTION_DDOT":0},{"OBJECT_NAME":"GSAT0216 (PRN E25)","OBJECT_ID":"2017-079B","EPOCH":"2022-08-17T17:17:36.630240","MEAN_MOTION":1.70474171,"ECCENTRICITY":0.0005656,"INCLINATION":55.7064,"RA_OF_ASC_NODE":260.037,"ARG_OF_PERICENTER":271.7242,"MEAN_ANOMALY":88.2639,"EPHEMERIS_TYPE":0,"CLASSIFICATION_TYPE":"U","NORAD_CAT_ID":43056,"ELEMENT_SET_NO":999,"REV_AT_EPOCH":2914,"BSTAR":0,"MEAN_MOTION_DOT":2.6e-7,"MEAN_MOTION_DDOT":0},{"OBJECT_NAME":"GSAT0217 (PRN E27)","OBJECT_ID":"2017-079C","EPOCH":"2022-08-17T08:30:04.471488","MEAN_MOTION":1.70474489,"ECCENTRICITY":0.0005032,"INCLINATION":55.7039,"RA_OF_ASC_NODE":260.0467,"ARG_OF_PERICENTER":281.1498,"MEAN_ANOMALY":78.8465,"EPHEMERIS_TYPE":0,"CLASSIFICATION_TYPE":"U","NORAD_CAT_ID":43057,"ELEMENT_SET_NO":999,"REV_AT_EPOCH":2912,"BSTAR":0,"MEAN_MOTION_DOT":2.4e-7,"MEAN_MOTION_DDOT":0},{"OBJECT_NAME":"GSAT0218 (PRN E31)","OBJECT_ID":"2017-079D","EPOCH":"2022-08-18T03:51:36.797184","MEAN_MOTION":1.70474462,"ECCENTRICITY":0.0006087,"INCLINATION":55.7042,"RA_OF_ASC_NODE":260.0218,"ARG_OF_PERICENTER":269.3022,"MEAN_ANOMALY":90.6815,"EPHEMERIS_TYPE":0,"CLASSIFICATION_TYPE":"U","NORAD_CAT_ID":43058,"ELEMENT_SET_NO":999,"REV_AT_EPOCH":2916,"BSTAR":0,"MEAN_MOTION_DOT":2.9e-7,"MEAN_MOTION_DDOT":0},{"OBJECT_NAME":"GSAT0221 (PRN E15)","OBJECT_ID":"2018-060A","EPOCH":"2022-08-17T11:21:08.524512","MEAN_MOTION":1.70476003,"ECCENTRICITY":0.0001869,"INCLINATION":57.1967,"RA_OF_ASC_NODE":19.5354,"ARG_OF_PERICENTER":249.2084,"MEAN_ANOMALY":110.7722,"EPHEMERIS_TYPE":0,"CLASSIFICATION_TYPE":"U","NORAD_CAT_ID":43564,"ELEMENT_SET_NO":999,"REV_AT_EPOCH":2530,"BSTAR":0,"MEAN_MOTION_DOT":-9.2e-7,"MEAN_MOTION_DDOT":0},{"OBJECT_NAME":"GSAT0222 (PRN E33)","OBJECT_ID":"2018-060B","EPOCH":"2022-08-19T10:51:48.200544","MEAN_MOTION":1.70476077,"ECCENTRICITY":0.0001287,"INCLINATION":57.1997,"RA_OF_ASC_NODE":19.4823,"ARG_OF_PERICENTER":263.1212,"MEAN_ANOMALY":96.8674,"EPHEMERIS_TYPE":0,"CLASSIFICATION_TYPE":"U","NORAD_CAT_ID":43565,"ELEMENT_SET_NO":999,"REV_AT_EPOCH":2538,"BSTAR":0,"MEAN_MOTION_DOT":-9.0e-7,"MEAN_MOTION_DDOT":0},{"OBJECT_NAME":"GSAT0219 (PRN E36)","OBJECT_ID":"2018-060C","EPOCH":"2022-08-19T02:04:42.395520","MEAN_MOTION":1.70476064,"ECCENTRICITY":9.16e-5,"INCLINATION":57.1983,"RA_OF_ASC_NODE":19.4941,"ARG_OF_PERICENTER":257.9811,"MEAN_ANOMALY":102.0115,"EPHEMERIS_TYPE":0,"CLASSIFICATION_TYPE":"U","NORAD_CAT_ID":43566,"ELEMENT_SET_NO":999,"REV_AT_EPOCH":2535,"BSTAR":0,"MEAN_MOTION_DOT":-9.0e-7,"MEAN_MOTION_DDOT":0},{"OBJECT_NAME":"GSAT0220 (PRN E13)","OBJECT_ID":"2018-060D","EPOCH":"2022-08-19T07:21:44.053632","MEAN_MOTION":1.70476021,"ECCENTRICITY":0.000134,"INCLINATION":57.2002,"RA_OF_ASC_NODE":19.4878,"ARG_OF_PERICENTER":244.7141,"MEAN_ANOMALY":115.2751,"EPHEMERIS_TYPE":0,"CLASSIFICATION_TYPE":"U","NORAD_CAT_ID":43567,"ELEMENT_SET_NO":999,"REV_AT_EPOCH":2534,"BSTAR":0,"MEAN_MOTION_DOT":-9.0e-7,"MEAN_MOTION_DDOT":0},{"OBJECT_NAME":"GSAT0223","OBJECT_ID":"2021-116A","EPOCH":"2022-08-14T11:29:02.547744","MEAN_MOTION":1.70475863,"ECCENTRICITY":0.000317,"INCLINATION":57.1903,"RA_OF_ASC_NODE":19.5164,"ARG_OF_PERICENTER":152.5321,"MEAN_ANOMALY":214.2841,"EPHEMERIS_TYPE":0,"CLASSIFICATION_TYPE":"U","NORAD_CAT_ID":49809,"ELEMENT_SET_NO":999,"REV_AT_EPOCH":427,"BSTAR":0,"MEAN_MOTION_DOT":-9.2e-7,"MEAN_MOTION_DDOT":0},{"OBJECT_NAME":"GSAT0224","OBJECT_ID":"2021-116B","EPOCH":"2022-08-17T19:15:28.181664","MEAN_MOTION":1.70476083,"ECCENTRICITY":0.0002849,"INCLINATION":57.1921,"RA_OF_ASC_NODE":19.4244,"ARG_OF_PERICENTER":142.7962,"MEAN_ANOMALY":216.4553,"EPHEMERIS_TYPE":0,"CLASSIFICATION_TYPE":"U","NORAD_CAT_ID":49810,"ELEMENT_SET_NO":999,"REV_AT_EPOCH":434,"BSTAR":0,"MEAN_MOTION_DOT":-9.2e-7,"MEAN_MOTION_DDOT":0}]